0341P         2025 04 22.1765  2.506924  0.415749  312.2578   29.9678    3.7973  20221111  12.5  4.0  341P/Gibbs                                               MPEC 2022-K19
0342P         2021 10 19.2833  0.052367  0.982782   73.2522   27.7134   11.6670  20221111   9.0  4.0  342P/SOHO                                                MPC101101
0343P         2017 01 30.7729  2.264551  0.585101  137.4677  257.1202    5.5902  20221111  14.0  4.0  343P/NEAT-LONEOS                                         MPEC 2022-K19
0344P         2027 07 24.5953  2.804573  0.423105  140.4326  273.1248    3.4944  20221111  13.0  4.0  344P/Read                                                MPC109148
0345P         2024 08 30.0526  3.141289  0.221505  196.5669  154.5146    2.7275  20221111  12.0  4.0  345P/LINEAR                                              MPEC 2022-K19
0346P         2026 08  1.7641  2.222608  0.503158  335.9579  102.4533   22.2010  20221111  14.0  4.0  346P/Catalina                                            MPEC 2022-K19
0347P         2023 07 20.0723  2.212597  0.386114   98.4279  261.0210   11.7540  20221111  15.0  4.0  347P/PANSTARRS                                           MPEC 2022-K19
0348P         2022 02 12.5743  2.183860  0.307033  135.6763  312.9405   17.7383  20221111  14.0  4.0  348P/PANSTARRS                                           MPEC 2022-ED3
0349P         2024 05 27.5200  2.508798  0.298423  255.9120  331.7528    5.4903  20221111  14.0  4.0  349P/Lemmon                                              MPEC 2022-K19
0350P         2026 03 16.9024  3.704287  0.093209  139.6947   65.2949    7.3634  20221111  14.0  4.0  350P/McNaught                                            MPC111775
0351P         2025 03 26.5885  3.128757  0.295173  352.6777  283.4265   12.7796  20221111  12.5  4.0  351P/Wiegert-PANSTARRS                                   MPC105244
0352P         2017 06 22.9135  2.538951  0.617892  309.3397   28.0053   21.0131  20221111  11.5  4.0  352P/Skiff                                               MPC110086
0353P         2026 06 30.4585  2.208856  0.470382  230.4648  121.5317   28.4126  20221111  14.5  4.0  353P/McNaught                                            MPEC 2020-AA5
0354P         2023 10 13.8967  2.003631  0.125275  132.6933  320.1281    5.2534  20221111  15.5  4.0  354P/LINEAR                                              MPC105545
0355P         2024 04  1.5030  1.707693  0.507833  336.3042   51.4323   11.0464  20221111  15.5  2.0  355P/LINEAR-NEAT                                         MPEC 2020-AA5
0356P         2026 06 11.5442  2.677806  0.355846  226.0395  160.7960    9.6379  20221111  14.0  4.0  356P/WISE                                                MPEC 2022-F14
0357P         2018 05 30.5969  2.515687  0.435701    1.3995   44.5581    6.3159  20221111  15.5  4.0  357P/Hill                                                MPC114609
0358P         2023 11 11.1827  2.394721  0.238953  299.7784   85.7027   11.0604  20221111  18.0  4.0  358P/PANSTARRS                                           MPEC 2020-HN5
0359P         2027 08 22.1076  3.135952  0.324162  200.2608  149.7531   10.2661  20221111  13.5  4.0  359P/LONEOS                                              MPC110086
0360P         2024 10  3.5635  1.852677  0.499297  354.1921    2.1921   24.1119  20221111  19.5  6.0  360P/WISE                                                MPC108599
0361P         2018 07  3.4802  2.769119  0.438955  219.0012  203.2574   13.9025  20221111  12.0  4.0  361P/Spacewatch                                          MPC114609
0362P         2024 07 20.6296  2.864395  0.278779   53.6167  192.5456   15.5569  20221111  12.9  2.0  362P                                                     MPEC 2017-V13
0363P         2024 11 13.1455  1.711578  0.520121  340.9662  146.8812    5.4059  20221111  17.5  4.0  363P/Lemmon                                              MPC114609
0364P         2023 05 14.0158  0.801220  0.721816  212.0129   46.1571   12.1349  20221111  17.0  2.0  364P/PANSTARRS                                           MPEC 2022-K19
0365P         2023 10  9.3020  1.322564  0.581411   67.6505   86.3457    9.8386  20221111  17.0  4.0  365P/PANSTARRS                                           MPC111775
0366P         2025 01 31.4069  2.279816  0.348036  153.0517   70.7629    8.8570  20221111  15.0  4.0  366P/Spacewatch                                          MPC114610
0367P         2025 01 12.2139  2.526285  0.279760  172.8105   58.7192    8.4596  20221111  17.5  2.0  367P/Catalina                                            MPC112395
0368P         2018 09 15.5631  2.063818  0.626746  118.9032  257.8590   15.4818  20221111  14.0  4.0  368P/NEAT                                                MPC114610
0369P         2018 10 16.2662  1.948565  0.555304   13.1542   47.2911   10.3232  20221111  15.0  4.0  369P/Hill                                                MPC114610
0370P         2018 06 10.7384  2.475458  0.615284  356.6999   55.0736   19.4228  20221111  13.0  4.0  370P/NEAT                                                MPEC 2021-F20
0371P         2018 10  6.1413  2.186110  0.477089  308.5465   67.2484   17.3841  20221111  16.0  4.0  371P/LINEAR-Skiff                                        MPC114610
0372P         2018 10 24.1429  3.819980  0.152556   27.5991  325.8177    9.5074  20221111  13.5  4.0  372P/McNaught                                            MPEC 2020-K19
0373P         2019 04  8.9738  2.308041  0.392799  221.0102  231.9602   13.7690  20221111  14.5  4.0  373P/Rinner                                              MPEC 2021-F20
0374P         2019 01 11.6992  2.668314  0.463293   51.4470    7.9151   10.7669  20221111  14.0  4.0  374P/Larson                                              MPC114610
0375P         2018 12 20.8763  1.893464  0.658870  119.3726  359.9488   17.3615  20221111  16.0  4.0  375P/Hill                                                MPEC 2021-F20
0376P         2019 09 22.4265  2.792896  0.516212  284.8188  313.7856    1.1735  20221111  12.5  4.0  376P/LONEOS                                              MPEC 2022-K19
0377P         2020 07 11.6428  5.018468  0.251488  355.0329  226.0667    9.0242  20221111   9.5  4.0  377P/Scotti                                              MPEC 2022-N37
0378P         2020 10 16.5331  3.370535  0.467677  193.6477   94.1076   19.0566  20221111  12.0  4.0  378P/McNaught                                            MPEC 2022-VC5
0379P         2019 08  2.9518  2.302484  0.343752   30.5593  183.8403   12.4529  20221111  15.0  4.0  379P/Spacewatch                                          MPC115889
0380P         2019 05 25.3263  2.910405  0.342140   86.3861  131.6957    8.1354  20221111  14.6  4.0  380P/PANSTARRS                                           MPEC 2022-K19
0381P         2019 09 27.1871  2.270183  0.681843  173.2790  173.7589   28.3785  20221111  17.5  2.0  381P/LINEAR-Spacewatch                                   MPEC 2021-J28
0382P         2022 01 12.3268  4.399729  0.294873  166.7457  173.7239    8.4521  20221111   8.0  4.0  382P/Larson                                              MPEC 2022-VC5
0383P         2019 10 26.5605  1.420702  0.599441  133.7717  207.8244   12.3255  20221111  18.0  4.0  383P/Christensen                                         MPEC 2022-OB6
0384P         2024 09 19.1214  1.113203  0.616142   37.6340  354.2275    7.2842  20221111  19.5  4.0  384P/Kowalski                                            MPEC 2022-OB6
0385P         2019 09 15.5727  2.564517  0.401997   44.3381  357.0603   16.8320  20221111  13.0  4.0  385P/Hill                                                MPEC 2021-F20
0386P         2020 08 19.0395  2.365667  0.416342  353.1241  134.9373   15.2310  20221111  14.5  4.0  386P/PANSTARRS                                           MPEC 2021-L04
0387P         2019 09  6.8272  1.263101  0.736691  162.7937  259.2589    8.9289  20221111  15.0  4.0  387P/Boattini                                            MPEC 2021-J28
0388P         2019 07 24.1009  1.999013  0.618605   42.2986   37.0461   23.8867  20221111  13.0  4.0  388P/Gibbs                                               MPEC 2021-S45
0389P         2019 12 29.4830  1.665117  0.704394  249.3889  218.8759  160.0836  20221111  16.0  4.0  389P/Siding Spring                                       MPEC 2022-OB6
0390P         2020 03 22.6375  1.699652  0.707428  232.3861  152.2720   18.5587  20221111  12.0  4.0  390P/Gibbs                                               MPEC 2022-OB6
0391P         2018 03 22.5100  4.122146  0.119882  187.3095  124.7385   21.2687  20221111   8.0  4.0  391P/Kowalski                                            MPEC 2021-F20
0392P         2020 04  1.0011  1.946002  0.683111   71.8805   24.8869    4.9320  20221111  14.5  4.0  392P/LINEAR                                              MPEC 2021-J28
0393P         2019 10 29.6496  4.213892  0.120619  328.7599   36.3950   16.7876  20221111  11.0  4.0  393P/Spacewatch-Hill                                     MPEC 2021-BE3
0394P         2019 11 29.6144  2.739354  0.367426   54.4692   98.1257    8.5295  20221111  16.0  2.4  394P/PANSTARRS                                           MPEC 2020-KB7
0395P         2022 01  2.3012  4.066141  0.389297   90.8466  222.9833    3.2968  20221111  10.0  4.0  395P/Catalina-NEAT                                       MPEC 2022-V95
0396P         2019 08 27.5398  3.977291  0.415733    8.4289  136.6542    5.4368  20221111  12.0  4.0  396P                                                     MPEC 2020-KB7
0397P         2020 06 19.7766  2.277563  0.405295   14.5134    8.1947   10.9298  20221111  12.0  4.0  397P/Lemmon                                              MPEC 2022-OB6
0398P         2020 12 26.8675  1.303965  0.582970  320.2027  127.4449   11.0163  20221111  15.5  4.0  398P/Boattini                                            MPEC 2021-L04
